STARLINK-34492          
1 64473U 25133B   26145.22509198  .00026484  00000+0  90367-3 0  9993
2 64473  53.1566 121.4941 0001775 102.2904 257.8296 15.30180167 52909
STARLINK-34474          
1 64474U 25133C   26145.22193044  .00018138  00000+0  62319-3 0  9996
2 64474  53.1569 121.4728 0001095  82.7679 277.3447 15.30190617 52885
STARLINK-34523          
1 64475U 25133D   26145.19202123  .00021545  00000+0  62655-3 0  9991
2 64475  53.1605 119.1561 0000715  72.9715 287.1366 15.35411245 52917
STARLINK-34496          
1 64476U 25133E   26145.19100051  .00023712  00000+0  68819-3 0  9995
2 64476  53.1598 119.1490 0001043  89.0264 271.0859 15.35414975 52926
STARLINK-34375          
1 64477U 25133F   26145.18489392  .00023080  00000+0  67030-3 0  9995
2 64477  53.1596 119.1149 0001100  55.4030 304.7077 15.35410268 52936
STARLINK-34490          
1 64478U 25133G   26145.19238852  .00015372  00000+0  52985-3 0  9998
2 64478  53.1608 121.2831 0001474  92.4883 267.6287 15.30211910 52909
STARLINK-34528          
1 64479U 25133H   26145.11801081  .00023002  00000+0  66770-3 0  9997
2 64479  53.1619 119.4020 0000179  23.0524 337.0487 15.35427804 52904
STARLINK-34518          
1 64480U 25133J   26145.18922362  .00026660  00000+0  90856-3 0  9997
2 64480  53.1598 121.2663 0001403  71.1647 288.9506 15.30216302 52749
STARLINK-34526          
1 64481U 25133K   26145.12074292  .00018527  00000+0  63583-3 0  9992
2 64481  53.1606 121.5464 0001382  78.7845 281.3311 15.30214142 52786
STARLINK-34527          
1 64482U 25133L   26145.11126532  .00019169  00000+0  65774-3 0  9994
2 64482  53.1585 121.4868 0001587  88.1993 271.9190 15.30195701 52897
STARLINK-34420          
1 64483U 25133M   26145.10491618 -.00002877  00000+0 -85104-4 0  9994
2 64483  53.1572 121.4498 0001019  81.5803 278.5313 15.30179758 52894
STARLINK-34509          
1 64484U 25133N   26145.10186125  .00015760  00000+0  54301-3 0  9996
2 64484  53.1566 122.1394 0001170 100.4179 259.6953 15.30204144 52883
STARLINK-34409          
1 64485U 25133P   26145.23037830  .00016899  00000+0  58118-3 0  9993
2 64485  53.1574 121.5208 0001055  94.9365 265.1757 15.30211926 52909
STARLINK-34520          
1 64486U 25133Q   26145.22721264  .00016169  00000+0  55684-3 0  9999
2 64486  53.1567 121.5007 0001149  87.4137 272.6995 15.30199279 52900
STARLINK-34477          
1 64487U 25133R   26145.22406971  .00057352  00000+0  19329-2 0  9999
2 64487  53.1553 121.4748 0001483  31.0390 329.0698 15.30210916 52891
STARLINK-34217          
1 64488U 25133S   26145.22087924  .00012098  00000+0  41986-3 0  9996
2 64488  53.1573 121.4586 0001000  83.4907 276.6207 15.30205565 52790
STARLINK-34307          
1 64489U 25133T   26145.21773497  .00038302  00000+0  12982-2 0  9992
2 64489  53.1565 121.4421 0001144 103.5072 256.6056 15.30211164 52888
STARLINK-34505          
1 64490U 25133U   26145.21456034  .00043138  00000+0  14580-2 0  9998
2 64490  53.1568 121.4187 0000831  91.0562 269.0534 15.30248036 52886
STARLINK-34530          
1 64491U 25133V   26145.19243911  .00025893  00000+0  74991-3 0  9995
2 64491  53.1603 119.1535 0000980  66.4520 293.6586 15.35431124 52903
STARLINK-34522          
1 64492U 25133W   26145.18886546  .00024293  00000+0  70480-3 0  9994
2 64492  53.1598 119.1312 0001287  81.6918 278.4231 15.35412396 52932
STARLINK-34462          
1 64493U 25133X   26145.18467957  .00024192  00000+0  70235-3 0  9992
2 64493  53.1597 119.1034 0001324  70.8700 289.2447 15.35393660 52935
STARLINK-34226          
1 64494U 25133Y   26145.20188608  .00009976  00000+0  34835-3 0  9998
2 64494  53.1590 121.3365 0001482  94.8704 265.2466 15.30213729 52731
STARLINK-34364          
1 64495U 25133Z   26145.19544878  .00024967  00000+0  74747-3 0  9995
2 64495  53.1587 118.4398 0001372  83.4823 276.6335 15.34406085 52942
STARLINK-34363          
1 64497U 25133AB  26145.10935689 -.00090958  00000+0 -27026-2 0  9994
2 64497  53.1597 119.3371 0002052 130.0375 230.0808 15.34523443 52928
STARLINK-34427          
1 64498U 25133AC  26145.19131883 -.00000491  00000+0 -44343-5 0  9995
2 64498  53.1602 121.2691 0001281  93.5018 266.6129 15.30200717 52904
KUIPER-00039            
1 64500U 25134A   26145.00653775  .00001510  00000+0  22706-3 0  9997
2 64500  51.9001 255.6295 0000357 113.8412 246.2588 14.79936619 51378
KUIPER-00040            
1 64501U 25134B   26145.02952977 -.00000521  00000+0 -39268-4 0  9991
2 64501  51.8981 265.6218 0000932 160.1523 199.9476 14.79943658 51234
KUIPER-00041            
1 64502U 25134C   26145.06057931  .00000479  00000+0  91839-4 0  9994
2 64502  51.9000 267.8657 0000342 146.7406 213.3578 14.79938238 51203
KUIPER-00042            
1 64503U 25134D   26145.03220426  .00001500  00000+0  22565-3 0  9998
2 64503  51.8977 262.9714 0000354 115.7479 244.3520 14.79938725 51274
KUIPER-00043            
1 64504U 25134E   26145.04030478  .00008825  00000+0  11852-2 0  9999
2 64504  51.9000 255.4195 0000646 101.4036 258.6999 14.79928555 51388
