OBJECT_NAME,OBJECT_ID,EPOCH,MEAN_MOTION,ECCENTRICITY,INCLINATION,RA_OF_ASC_NODE,ARG_OF_PERICENTER,MEAN_ANOMALY,EPHEMERIS_TYPE,CLASSIFICATION_TYPE,NORAD_CAT_ID,ELEMENT_SET_NO,REV_AT_EPOCH,BSTAR,MEAN_MOTION_DOT,MEAN_MOTION_DDOT
STARLINK-34492,2025-133B,2026-05-25T05:24:07.947072,15.30180167,.0001775,53.1566,121.4941,102.2904,257.8296,0,U,64473,999,5290,.90367E-3,.26484E-3,0
STARLINK-34474,2025-133C,2026-05-25T05:19:34.790016,15.30190617,.0001095,53.1569,121.4728,82.7679,277.3447,0,U,64474,999,5288,.62319E-3,.18138E-3,0
STARLINK-34523,2025-133D,2026-05-25T04:36:30.634272,15.35411245,.0000715,53.1605,119.1561,72.9715,287.1366,0,U,64475,999,5291,.62655E-3,.21545E-3,0
STARLINK-34496,2025-133E,2026-05-25T04:35:02.444064,15.35414975,.0001043,53.1598,119.1490,89.0264,271.0859,0,U,64476,999,5292,.68819E-3,.23712E-3,0
STARLINK-34375,2025-133F,2026-05-25T04:26:14.834688,15.35410268,.00011,53.1596,119.1149,55.4030,304.7077,0,U,64477,999,5293,.6703E-3,.2308E-3,0
STARLINK-34490,2025-133G,2026-05-25T04:37:02.368128,15.30211910,.0001474,53.1608,121.2831,92.4883,267.6287,0,U,64478,999,5290,.52985E-3,.15372E-3,0
STARLINK-34528,2025-133H,2026-05-25T02:49:56.133984,15.35427804,.0000179,53.1619,119.4020,23.0524,337.0487,0,U,64479,999,5290,.6677E-3,.23002E-3,0
STARLINK-34518,2025-133J,2026-05-25T04:32:28.920768,15.30216302,.0001403,53.1598,121.2663,71.1647,288.9506,0,U,64480,999,5274,.90856E-3,.2666E-3,0
STARLINK-34526,2025-133K,2026-05-25T02:53:52.188288,15.30214142,.0001382,53.1606,121.5464,78.7845,281.3311,0,U,64481,999,5278,.63583E-3,.18527E-3,0
STARLINK-34527,2025-133L,2026-05-25T02:40:13.323648,15.30195701,.0001587,53.1585,121.4868,88.1993,271.9190,0,U,64482,999,5289,.65774E-3,.19169E-3,0
STARLINK-34420,2025-133M,2026-05-25T02:31:04.757952,15.30179758,.0001019,53.1572,121.4498,81.5803,278.5313,0,U,64483,999,5289,-.85104E-4,-.2877E-4,0
STARLINK-34509,2025-133N,2026-05-25T02:26:40.812000,15.30204144,.000117,53.1566,122.1394,100.4179,259.6953,0,U,64484,999,5288,.54301E-3,.1576E-3,0
STARLINK-34409,2025-133P,2026-05-25T05:31:44.685120,15.30211926,.0001055,53.1574,121.5208,94.9365,265.1757,0,U,64485,999,5290,.58118E-3,.16899E-3,0
STARLINK-34520,2025-133Q,2026-05-25T05:27:11.172096,15.30199279,.0001149,53.1567,121.5007,87.4137,272.6995,0,U,64486,999,5290,.55684E-3,.16169E-3,0
STARLINK-34477,2025-133R,2026-05-25T05:22:39.622944,15.30210916,.0001483,53.1553,121.4748,31.0390,329.0698,0,U,64487,999,5289,.19329E-2,.57352E-3,0
STARLINK-34217,2025-133S,2026-05-25T05:18:03.966336,15.30205565,.0001,53.1573,121.4586,83.4907,276.6207,0,U,64488,999,5279,.41986E-3,.12098E-3,0
STARLINK-34307,2025-133T,2026-05-25T05:13:32.301408,15.30211164,.0001144,53.1565,121.4421,103.5072,256.6056,0,U,64489,999,5288,.12982E-2,.38302E-3,0
STARLINK-34505,2025-133U,2026-05-25T05:08:58.013376,15.30248036,.0000831,53.1568,121.4187,91.0562,269.0534,0,U,64490,999,5288,.1458E-2,.43138E-3,0
STARLINK-34530,2025-133V,2026-05-25T04:37:06.739104,15.35431124,.000098,53.1603,119.1535,66.4520,293.6586,0,U,64491,999,5290,.74991E-3,.25893E-3,0
STARLINK-34522,2025-133W,2026-05-25T04:31:57.975744,15.35412396,.0001287,53.1598,119.1312,81.6918,278.4231,0,U,64492,999,5293,.7048E-3,.24293E-3,0
STARLINK-34462,2025-133X,2026-05-25T04:25:56.314848,15.35393660,.0001324,53.1597,119.1034,70.8700,289.2447,0,U,64493,999,5293,.70235E-3,.24192E-3,0
STARLINK-34226,2025-133Y,2026-05-25T04:50:42.957312,15.30213729,.0001482,53.1590,121.3365,94.8704,265.2466,0,U,64494,999,5273,.34835E-3,.9976E-4,0
STARLINK-34364,2025-133Z,2026-05-25T04:41:26.774592,15.34406085,.0001372,53.1587,118.4398,83.4823,276.6335,0,U,64495,999,5294,.74747E-3,.24967E-3,0
STARLINK-34363,2025-133AB,2026-05-25T02:37:28.435296,15.34523443,.0002052,53.1597,119.3371,130.0375,230.0808,0,U,64497,999,5292,-.27026E-2,-.90958E-3,0
STARLINK-34427,2025-133AC,2026-05-25T04:35:29.946912,15.30200717,.0001281,53.1602,121.2691,93.5018,266.6129,0,U,64498,999,5290,-.44343E-5,-.491E-5,0
KUIPER-00039,2025-134A,2026-05-25T00:09:24.861600,14.79936619,.0000357,51.9001,255.6295,113.8412,246.2588,0,U,64500,999,5137,.22706E-3,.151E-4,0
KUIPER-00040,2025-134B,2026-05-25T00:42:31.372128,14.79943658,.0000932,51.8981,265.6218,160.1523,199.9476,0,U,64501,999,5123,-.39268E-4,-.521E-5,0
KUIPER-00041,2025-134C,2026-05-25T01:27:14.052384,14.79938238,.0000342,51.9000,267.8657,146.7406,213.3578,0,U,64502,999,5120,.91839E-4,.479E-5,0
KUIPER-00042,2025-134D,2026-05-25T00:46:22.448064,14.79938725,.0000354,51.8977,262.9714,115.7479,244.3520,0,U,64503,999,5127,.22565E-3,.15E-4,0
KUIPER-00043,2025-134E,2026-05-25T00:58:02.332992,14.79928555,.0000646,51.9000,255.4195,101.4036,258.6999,0,U,64504,999,5138,.11852E-2,.8825E-4,0
